[{"OBJECT_NAME":"STARLINK-30563","OBJECT_ID":"2023-156Q","EPOCH":"2026-03-20T13:14:48.604416","MEAN_MOTION":15.30198125,"ECCENTRICITY":0.0001418,"INCLINATION":53.1637,"RA_OF_ASC_NODE":25.3042,"ARG_OF_PERICENTER":101.6804,"MEAN_ANOMALY":258.4356,"EPHEMERIS_TYPE":0,"CLASSIFICATION_TYPE":"U","NORAD_CAT_ID":58042,"ELEMENT_SET_NO":999,"REV_AT_EPOCH":13801,"BSTAR":4.7763e-5,"MEAN_MOTION_DOT":1.055e-5,"MEAN_MOTION_DDOT":0},{"OBJECT_NAME":"STARLINK-30564","OBJECT_ID":"2023-156R","EPOCH":"2026-03-20T06:45:50.361696","MEAN_MOTION":15.30197919,"ECCENTRICITY":0.0001806,"INCLINATION":53.1602,"RA_OF_ASC_NODE":29.2848,"ARG_OF_PERICENTER":133.1967,"MEAN_ANOMALY":226.9184,"EPHEMERIS_TYPE":0,"CLASSIFICATION_TYPE":"U","NORAD_CAT_ID":58043,"ELEMENT_SET_NO":999,"REV_AT_EPOCH":13793,"BSTAR":0.00012334,"MEAN_MOTION_DOT":3.295e-5,"MEAN_MOTION_DDOT":0},{"OBJECT_NAME":"STARLINK-30547","OBJECT_ID":"2023-156S","EPOCH":"2026-03-20T19:19:20.663328","MEAN_MOTION":15.30194852,"ECCENTRICITY":0.0001197,"INCLINATION":53.1597,"RA_OF_ASC_NODE":116.5789,"ARG_OF_PERICENTER":77.8791,"MEAN_ANOMALY":282.2344,"EPHEMERIS_TYPE":0,"CLASSIFICATION_TYPE":"U","NORAD_CAT_ID":58044,"ELEMENT_SET_NO":999,"REV_AT_EPOCH":13673,"BSTAR":4.2539e-6,"MEAN_MOTION_DOT":-2.33e-6,"MEAN_MOTION_DDOT":0},{"OBJECT_NAME":"STARLINK-30550","OBJECT_ID":"2023-156T","EPOCH":"2026-03-19T22:20:21.850944","MEAN_MOTION":15.30194229,"ECCENTRICITY":0.0001207,"INCLINATION":53.1603,"RA_OF_ASC_NODE":313.78,"ARG_OF_PERICENTER":75.3799,"MEAN_ANOMALY":284.7336,"EPHEMERIS_TYPE":0,"CLASSIFICATION_TYPE":"U","NORAD_CAT_ID":58045,"ELEMENT_SET_NO":999,"REV_AT_EPOCH":13894,"BSTAR":1.1751e-5,"MEAN_MOTION_DOT":-1.1e-7,"MEAN_MOTION_DDOT":0},{"OBJECT_NAME":"STARLINK-30548","OBJECT_ID":"2023-156U","EPOCH":"2026-03-20T19:11:45.610080","MEAN_MOTION":15.3019124,"ECCENTRICITY":0.0001581,"INCLINATION":53.1576,"RA_OF_ASC_NODE":116.5933,"ARG_OF_PERICENTER":90.3052,"MEAN_ANOMALY":269.813,"EPHEMERIS_TYPE":0,"CLASSIFICATION_TYPE":"U","NORAD_CAT_ID":58046,"ELEMENT_SET_NO":999,"REV_AT_EPOCH":13668,"BSTAR":0.00022302,"MEAN_MOTION_DOT":6.25e-5,"MEAN_MOTION_DDOT":0},{"OBJECT_NAME":"STARLINK-30529","OBJECT_ID":"2023-156V","EPOCH":"2026-03-20T12:00:57.824064","MEAN_MOTION":15.30221108,"ECCENTRICITY":0.00013209,"INCLINATION":53.1603,"RA_OF_ASC_NODE":118.2626,"ARG_OF_PERICENTER":86.1816,"MEAN_ANOMALY":273.9336,"EPHEMERIS_TYPE":0,"CLASSIFICATION_TYPE":"U","NORAD_CAT_ID":58047,"ELEMENT_SET_NO":999,"REV_AT_EPOCH":13663,"BSTAR":8.4118691e-5,"MEAN_MOTION_DOT":2.134e-5,"MEAN_MOTION_DDOT":0},{"OBJECT_NAME":"STARLINK-30554","OBJECT_ID":"2023-156W","EPOCH":"2026-03-20T12:34:16.031424","MEAN_MOTION":15.30202012,"ECCENTRICITY":0.00011923,"INCLINATION":53.157,"RA_OF_ASC_NODE":117.7122,"ARG_OF_PERICENTER":98.3284,"MEAN_ANOMALY":261.7852,"EPHEMERIS_TYPE":0,"CLASSIFICATION_TYPE":"U","NORAD_CAT_ID":58048,"ELEMENT_SET_NO":999,"REV_AT_EPOCH":13664,"BSTAR":0.00030718558,"MEAN_MOTION_DOT":8.75e-5,"MEAN_MOTION_DDOT":0},{"OBJECT_NAME":"STARLINK-30568","OBJECT_ID":"2023-158A","EPOCH":"2026-03-20T17:30:43.151040","MEAN_MOTION":15.27586411,"ECCENTRICITY":0.0001556,"INCLINATION":43.0043,"RA_OF_ASC_NODE":325.1066,"ARG_OF_PERICENTER":257.0753,"MEAN_ANOMALY":102.9925,"EPHEMERIS_TYPE":0,"CLASSIFICATION_TYPE":"U","NORAD_CAT_ID":58051,"ELEMENT_SET_NO":999,"REV_AT_EPOCH":13524,"BSTAR":0.000101,"MEAN_MOTION_DOT":2.518e-5,"MEAN_MOTION_DDOT":0},{"OBJECT_NAME":"STARLINK-30575","OBJECT_ID":"2023-158B","EPOCH":"2026-03-20T17:25:10.364160","MEAN_MOTION":15.27580421,"ECCENTRICITY":9.82e-5,"INCLINATION":43.005,"RA_OF_ASC_NODE":325.0787,"ARG_OF_PERICENTER":278.2532,"MEAN_ANOMALY":81.8209,"EPHEMERIS_TYPE":0,"CLASSIFICATION_TYPE":"U","NORAD_CAT_ID":58052,"ELEMENT_SET_NO":999,"REV_AT_EPOCH":13525,"BSTAR":3.6022e-5,"MEAN_MOTION_DOT":7.29e-6,"MEAN_MOTION_DDOT":0},{"OBJECT_NAME":"STARLINK-30577","OBJECT_ID":"2023-158C","EPOCH":"2026-03-20T16:38:54.619872","MEAN_MOTION":15.27586997,"ECCENTRICITY":6.04e-5,"INCLINATION":42.9998,"RA_OF_ASC_NODE":324.8207,"ARG_OF_PERICENTER":283.573,"MEAN_ANOMALY":76.5055,"EPHEMERIS_TYPE":0,"CLASSIFICATION_TYPE":"U","NORAD_CAT_ID":58053,"ELEMENT_SET_NO":999,"REV_AT_EPOCH":13525,"BSTAR":-2.7287e-5,"MEAN_MOTION_DOT":-1.013e-5,"MEAN_MOTION_DDOT":0},{"OBJECT_NAME":"STARLINK-30566","OBJECT_ID":"2023-158D","EPOCH":"2026-03-20T16:27:48.702240","MEAN_MOTION":15.27690214,"ECCENTRICITY":0.0002241,"INCLINATION":42.9991,"RA_OF_ASC_NODE":324.7894,"ARG_OF_PERICENTER":276.8016,"MEAN_ANOMALY":83.258,"EPHEMERIS_TYPE":0,"CLASSIFICATION_TYPE":"U","NORAD_CAT_ID":58054,"ELEMENT_SET_NO":999,"REV_AT_EPOCH":13525,"BSTAR":0.0082454,"MEAN_MOTION_DOT":0.00234777,"MEAN_MOTION_DDOT":0},{"OBJECT_NAME":"STARLINK-30544","OBJECT_ID":"2023-158E","EPOCH":"2026-03-20T09:54:31.319136","MEAN_MOTION":15.27595887,"ECCENTRICITY":0.0001757,"INCLINATION":43.0041,"RA_OF_ASC_NODE":326.1759,"ARG_OF_PERICENTER":253.2327,"MEAN_ANOMALY":106.8332,"EPHEMERIS_TYPE":0,"CLASSIFICATION_TYPE":"U","NORAD_CAT_ID":58055,"ELEMENT_SET_NO":999,"REV_AT_EPOCH":13521,"BSTAR":0.00012563645,"MEAN_MOTION_DOT":3.198e-5,"MEAN_MOTION_DDOT":0},{"OBJECT_NAME":"STARLINK-30553","OBJECT_ID":"2023-158F","EPOCH":"2026-03-20T16:31:30.778752","MEAN_MOTION":15.27580454,"ECCENTRICITY":0.0001277,"INCLINATION":43.0022,"RA_OF_ASC_NODE":324.8015,"ARG_OF_PERICENTER":271.4786,"MEAN_ANOMALY":88.5919,"EPHEMERIS_TYPE":0,"CLASSIFICATION_TYPE":"U","NORAD_CAT_ID":58056,"ELEMENT_SET_NO":999,"REV_AT_EPOCH":13525,"BSTAR":6.6494e-5,"MEAN_MOTION_DOT":1.568e-5,"MEAN_MOTION_DDOT":0},{"OBJECT_NAME":"STARLINK-30541","OBJECT_ID":"2023-158G","EPOCH":"2026-03-20T02:14:50.995392","MEAN_MOTION":15.27582014,"ECCENTRICITY":0.00014656,"INCLINATION":43.0002,"RA_OF_ASC_NODE":328.0827,"ARG_OF_PERICENTER":273.1618,"MEAN_ANOMALY":86.9066,"EPHEMERIS_TYPE":0,"CLASSIFICATION_TYPE":"U","NORAD_CAT_ID":58057,"ELEMENT_SET_NO":999,"REV_AT_EPOCH":13516,"BSTAR":0.00010583476,"MEAN_MOTION_DOT":2.651e-5,"MEAN_MOTION_DDOT":0},{"OBJECT_NAME":"STARLINK-30573","OBJECT_ID":"2023-158H","EPOCH":"2026-03-20T19:45:24.665760","MEAN_MOTION":15.27551602,"ECCENTRICITY":0.0001421,"INCLINATION":43.0019,"RA_OF_ASC_NODE":324.0892,"ARG_OF_PERICENTER":260.7197,"MEAN_ANOMALY":99.3494,"EPHEMERIS_TYPE":0,"CLASSIFICATION_TYPE":"U","NORAD_CAT_ID":58058,"ELEMENT_SET_NO":999,"REV_AT_EPOCH":13527,"BSTAR":-1.1358e-5,"MEAN_MOTION_DOT":-5.74e-6,"MEAN_MOTION_DDOT":0},{"OBJECT_NAME":"STARLINK-30582","OBJECT_ID":"2023-158J","EPOCH":"2026-03-20T01:58:12.248544","MEAN_MOTION":15.27573828,"ECCENTRICITY":0.00015221,"INCLINATION":43.0042,"RA_OF_ASC_NODE":327.9963,"ARG_OF_PERICENTER":266.6826,"MEAN_ANOMALY":93.3852,"EPHEMERIS_TYPE":0,"CLASSIFICATION_TYPE":"U","NORAD_CAT_ID":58059,"ELEMENT_SET_NO":999,"REV_AT_EPOCH":13516,"BSTAR":6.05151e-5,"MEAN_MOTION_DOT":1.403e-5,"MEAN_MOTION_DDOT":0},{"OBJECT_NAME":"STARLINK-30558","OBJECT_ID":"2023-158K","EPOCH":"2026-03-20T17:14:06.007776","MEAN_MOTION":15.27560873,"ECCENTRICITY":0.0001749,"INCLINATION":43.0056,"RA_OF_ASC_NODE":325.0019,"ARG_OF_PERICENTER":261.3371,"MEAN_ANOMALY":98.7283,"EPHEMERIS_TYPE":0,"CLASSIFICATION_TYPE":"U","NORAD_CAT_ID":58060,"ELEMENT_SET_NO":999,"REV_AT_EPOCH":13525,"BSTAR":1.3908e-5,"MEAN_MOTION_DOT":1.2e-6,"MEAN_MOTION_DDOT":0},{"OBJECT_NAME":"STARLINK-30579","OBJECT_ID":"2023-158L","EPOCH":"2026-03-20T00:10:09.659136","MEAN_MOTION":15.27588326,"ECCENTRICITY":0.000169,"INCLINATION":43.0022,"RA_OF_ASC_NODE":302.9827,"ARG_OF_PERICENTER":273.0902,"MEAN_ANOMALY":86.9756,"EPHEMERIS_TYPE":0,"CLASSIFICATION_TYPE":"U","NORAD_CAT_ID":58061,"ELEMENT_SET_NO":999,"REV_AT_EPOCH":13544,"BSTAR":0.00030579,"MEAN_MOTION_DOT":8.164e-5,"MEAN_MOTION_DDOT":0},{"OBJECT_NAME":"STARLINK-30588","OBJECT_ID":"2023-158M","EPOCH":"2026-03-20T16:42:37.159488","MEAN_MOTION":15.27570796,"ECCENTRICITY":0.0001277,"INCLINATION":43.0003,"RA_OF_ASC_NODE":324.8525,"ARG_OF_PERICENTER":274.3597,"MEAN_ANOMALY":85.7108,"EPHEMERIS_TYPE":0,"CLASSIFICATION_TYPE":"U","NORAD_CAT_ID":58062,"ELEMENT_SET_NO":999,"REV_AT_EPOCH":13525,"BSTAR":0.00021231,"MEAN_MOTION_DOT":5.583e-5,"MEAN_MOTION_DDOT":0},{"OBJECT_NAME":"STARLINK-30585","OBJECT_ID":"2023-158N","EPOCH":"2026-03-20T16:53:44.177856","MEAN_MOTION":15.27580412,"ECCENTRICITY":0.0001345,"INCLINATION":43.0004,"RA_OF_ASC_NODE":324.9083,"ARG_OF_PERICENTER":265.2083,"MEAN_ANOMALY":94.8615,"EPHEMERIS_TYPE":0,"CLASSIFICATION_TYPE":"U","NORAD_CAT_ID":58063,"ELEMENT_SET_NO":999,"REV_AT_EPOCH":13525,"BSTAR":0.00016665,"MEAN_MOTION_DOT":4.326e-5,"MEAN_MOTION_DDOT":0},{"OBJECT_NAME":"STARLINK-30587","OBJECT_ID":"2023-158P","EPOCH":"2026-03-20T02:09:21.046752","MEAN_MOTION":15.27548898,"ECCENTRICITY":0.00025315,"INCLINATION":43.008,"RA_OF_ASC_NODE":328.054,"ARG_OF_PERICENTER":282.5518,"MEAN_ANOMALY":77.5051,"EPHEMERIS_TYPE":0,"CLASSIFICATION_TYPE":"U","NORAD_CAT_ID":58064,"ELEMENT_SET_NO":999,"REV_AT_EPOCH":13516,"BSTAR":-0.0001086689,"MEAN_MOTION_DOT":-3.249e-5,"MEAN_MOTION_DDOT":0},{"OBJECT_NAME":"STARLINK-30576","OBJECT_ID":"2023-158Q","EPOCH":"2026-03-20T02:37:03.645408","MEAN_MOTION":15.27570123,"ECCENTRICITY":0.00016777,"INCLINATION":43.0038,"RA_OF_ASC_NODE":328.1905,"ARG_OF_PERICENTER":269.6576,"MEAN_ANOMALY":90.4083,"EPHEMERIS_TYPE":0,"CLASSIFICATION_TYPE":"U","NORAD_CAT_ID":58065,"ELEMENT_SET_NO":999,"REV_AT_EPOCH":13516,"BSTAR":6.0893641e-5,"MEAN_MOTION_DOT":1.413e-5,"MEAN_MOTION_DDOT":0},{"OBJECT_NAME":"STARLINK-30571","OBJECT_ID":"2023-158R","EPOCH":"2026-03-20T09:17:44.273472","MEAN_MOTION":15.27581948,"ECCENTRICITY":0.00011437,"INCLINATION":43.0025,"RA_OF_ASC_NODE":326.8268,"ARG_OF_PERICENTER":275.7012,"MEAN_ANOMALY":84.3709,"EPHEMERIS_TYPE":0,"CLASSIFICATION_TYPE":"U","NORAD_CAT_ID":58066,"ELEMENT_SET_NO":999,"REV_AT_EPOCH":13520,"BSTAR":6.1315887e-5,"MEAN_MOTION_DOT":1.426e-5,"MEAN_MOTION_DDOT":0}]
